
IRIDIUM 154
1 43574U 18061F   26170.18511986  .00000235  00000+0  76827-4 0  9997
2 43574  86.3960  55.9715 0002146  88.3736 271.7706 14.34217520413699

IRIDIUM 156
1 43576U 18061H   26170.21049500  .00000259  00000+0  85267-4 0  9995
2 43576  86.3959  55.8835 0002047  82.6583 277.4846 14.34216148413668

IRIDIUM 159
1 43578U 18061K   26170.22951963  .00000047  00000+0  98764-5 0  9995
2 43578  86.3959  55.8526 0002265  84.0122 276.1331 14.34217789413672

IRIDIUM 163
1 43575U 18061G   26170.23586046  .00000055  00000+0  12682-4 0  9992
2 43575  86.3958  55.8656 0002237  83.3474 276.7977 14.34216698413673

IRIDIUM 164
1 43577U 18061J   26170.19146338  .00000131  00000+0  39573-4 0  9998
2 43577  86.3959  55.9318 0002151  89.4805 270.6637 14.34217552413702

IRIDIUM 167
1 43931U 19002K   26170.24804254  .00000012  00000+0 -28807-5 0  9990
2 43931  86.3966 352.7323 0001787  93.4593 266.6808 14.34217542389257

IRIDIUM 168
1 43924U 19002C   26170.01336271  .00000165  00000+0  51984-4 0  9995
2 43924  86.3974 352.9112 0002209  89.8177 270.3272 14.34219657389237

IRIDIUM 169
1 43926U 19002E   26170.06069259  .00000212  00000+0  62756-4 0  9993
2 43926  86.4223  24.4099 0001792  73.9999 286.1396 14.38609764390492

IRIDIUM 170
1 43930U 19002J   26169.93225637  .00000577  00000+0  87629-4 0  9996
2 43930  86.6092 352.8134 0002358  89.7308 270.4179 14.72269400399513

IRIDIUM 171
1 43929U 19002H   26170.25438566 -.00000030  00000+0 -17776-4 0  9990
2 43929  86.3974 353.0136 0001947  91.6470 268.4949 14.34217298389255

IRIDIUM 172
1 43927U 19002F   26170.20364129  .00000168  00000+0  52817-4 0  9991
2 43927  86.3970 352.7284 0002258  88.8304 271.3151 14.34219284389254

IRIDIUM 173
1 43925U 19002D   26170.20998776  .00000211  00000+0  68229-4 0  9993
2 43925  86.3968 352.7177 0002190  87.7683 272.3763 14.34217596389246

IRIDIUM 174
1 56728U 23068U   26169.98789103  .00000602  00000+0  91459-4 0  9995
2 56728  86.6098 352.9377 0002446  84.3279 275.8217 14.72265957166285

IRIDIUM 175
1 43928U 19002G   26170.07803037  .00000264  00000+0  72054-4 0  9995
2 43928  86.4514 289.7304 0002760 173.3867 186.7371 14.43613621399251

IRIDIUM 176
1 43923U 19002B   26170.26591116  .00000588  00000+0  89275-4 0  9995
2 43923  86.6091 352.6714 0002318  93.3865 266.7617 14.72269379399555

IRIDIUM 177
1 56727U 23068T   26170.14782529  .00000495  00000+0  61642-4 0  9990
2 56727  86.1962 327.8602 0002358  88.8348 271.3143 14.80226996166658

IRIDIUM 178
1 56729U 23068V   26170.06934931  .00000737  00000+0  93583-4 0  9997
2 56729  86.6536  24.5735 0002615  85.4920 274.6600 14.80236463166648

IRIDIUM 179
1 56730U 23068W   26170.06395387  .00000736  00000+0  93417-4 0  9990
2 56730  86.6773  33.5611 0002458  87.8410 272.3093 14.80233831166648

IRIDIUM 180
1 43922U 19002A   26170.01970944  .00000150  00000+0  46542-4 0  9992
2 43922  86.3971 352.8312 0002253  89.3829 270.7625 14.34217674389256

IRIDIUM 181
1 56726U 23068S   26170.18633393  .00000251  00000+0  68698-4 0  9995
2 56726  86.4499  55.9551 0002376  89.0473 271.1000 14.43307791162725
