OBJECT_NAME,OBJECT_ID,EPOCH,MEAN_MOTION,ECCENTRICITY,INCLINATION,RA_OF_ASC_NODE,ARG_OF_PERICENTER,MEAN_ANOMALY,EPHEMERIS_TYPE,CLASSIFICATION_TYPE,NORAD_CAT_ID,ELEMENT_SET_NO,REV_AT_EPOCH,BSTAR,MEAN_MOTION_DOT,MEAN_MOTION_DDOT
IRIDIUM 154,2018-061F,2026-06-19T04:26:34.355904,14.34217520,.00021461,86.3960,55.9715,88.3736,271.7706,0,U,43574,999,41369,.76827233E-4,.235E-5,0
IRIDIUM 163,2018-061G,2026-06-19T05:39:38.343744,14.34216698,.00022371,86.3958,55.8656,83.3474,276.7977,0,U,43575,999,41367,.12681664E-4,.55E-6,0
IRIDIUM 156,2018-061H,2026-06-19T05:03:06.768000,14.34216148,.00020477,86.3959,55.8835,82.6583,277.4846,0,U,43576,999,41366,.85266981E-4,.259E-5,0
IRIDIUM 164,2018-061J,2026-06-19T04:35:42.436032,14.34217552,.00021519,86.3959,55.9318,89.4805,270.6637,0,U,43577,999,41370,.3957317E-4,.131E-5,0
IRIDIUM 159,2018-061K,2026-06-19T05:30:30.496032,14.34217789,.0002265,86.3959,55.8526,84.0122,276.1331,0,U,43578,999,41367,.9876419E-5,.47E-6,0
IRIDIUM 180,2019-002A,2026-06-19T00:28:22.895616,14.34217674,.00022538,86.3971,352.8312,89.3829,270.7625,0,U,43922,999,38925,.46542368E-4,.15E-5,0
IRIDIUM 176,2019-002B,2026-06-19T06:22:54.724224,14.72269379,.00023182,86.6091,352.6714,93.3865,266.7617,0,U,43923,999,39955,.89274609E-4,.588E-5,0
IRIDIUM 168,2019-002C,2026-06-19T00:19:14.538144,14.34219657,.00022095,86.3974,352.9112,89.8177,270.3272,0,U,43924,999,38923,.51983527E-4,.165E-5,0
IRIDIUM 173,2019-002D,2026-06-19T05:02:22.942464,14.34217596,.00021904,86.3968,352.7177,87.7683,272.3763,0,U,43925,999,38924,.68228981E-4,.211E-5,0
IRIDIUM 169,2019-002E,2026-06-19T01:27:23.839776,14.38609764,.00017928,86.4223,24.4099,73.9999,286.1396,0,U,43926,999,39049,.62755635E-4,.212E-5,0
IRIDIUM 172,2019-002F,2026-06-19T04:53:14.607456,14.34219284,.00022587,86.3970,352.7284,88.8304,271.3151,0,U,43927,999,38925,.52816882E-4,.168E-5,0
IRIDIUM 175,2019-002G,2026-06-19T01:52:21.823968,14.43613621,.000276,86.4514,289.7304,173.3867,186.7371,0,U,43928,999,39925,.72053676E-4,.264E-5,0
IRIDIUM 171,2019-002H,2026-06-19T06:06:18.921024,14.34217298,.00019476,86.3974,353.0136,91.6470,268.4949,0,U,43929,999,38925,-.17775527E-4,-.3E-6,0
IRIDIUM 170,2019-002J,2026-06-18T22:22:26.950368,14.72269400,.0002358,86.6092,352.8134,89.7308,270.4179,0,U,43930,999,39951,.87629E-4,.577E-5,0
IRIDIUM 167,2019-002K,2026-06-19T05:57:10.875456,14.34217542,.00017876,86.3966,352.7323,93.4593,266.6808,0,U,43931,999,38925,-.2880731E-5,.12E-6,0
IRIDIUM 181,2023-068S,2026-06-19T04:28:19.251552,14.43307791,.00023768,86.4499,55.9551,89.0473,271.1000,0,U,56726,999,16272,.6869802E-4,.251E-5,0
IRIDIUM 177,2023-068T,2026-06-19T03:32:52.105056,14.80226996,.00023581,86.1962,327.8602,88.8348,271.3143,0,U,56727,999,16665,.6164174E-4,.495E-5,0
IRIDIUM 174,2023-068U,2026-06-18T23:42:33.784992,14.72265957,.00024465,86.6098,352.9377,84.3279,275.8217,0,U,56728,999,16628,.91459462E-4,.602E-5,0
IRIDIUM 178,2023-068V,2026-06-19T01:39:51.780384,14.80236463,.00026158,86.6536,24.5735,85.4920,274.6600,0,U,56729,999,16664,.93583272E-4,.737E-5,0
IRIDIUM 179,2023-068W,2026-06-19T01:32:05.614368,14.80233831,.0002458,86.6773,33.5611,87.8410,272.3093,0,U,56730,999,16664,.93417448E-4,.736E-5,0
